MOLNIYA 2-9             
1 07276U 74026A   23031.47427007  .00000156  00000+0  00000+0 0  9991
2 07276  64.2830 195.9207 6399471 278.2759  18.5920  2.45096413254807
MOLNIYA 2-10            
1 07376U 74056A   23031.12016813 -.00000758  00000+0  00000+0 0  9995
2 07376  64.4732  70.9601 6778274 284.7957  13.7456  2.01196507354938
MOLNIYA 1-S             
1 07392U 74060A   23031.26438459  .00000156  00000+0  00000+0 0  9998
2 07392   4.5409 279.4099 0010027 215.2853 132.2723  1.00260054121801
MOLNIYA 1-29            
1 07780U 75036A   23031.48351430  .00000079  00000+0 -11702+0 0  9996
2 07780  63.4151 190.5176 6800817 287.6915  12.7680  2.00581694350198
MOLNIYA 2-14            
1 08195U 75081A   23031.30421935 -.00000984  00000+0  00000+0 0  9990
2 08195  63.3927 163.9772 6729723 291.9457  12.0677  2.02082716347491
MOLNIYA 1-32            
1 08601U 76006A   23028.99386597 -.00000651  00000+0  00000+0 0  9996
2 08601  63.5516 267.1739 7147499 283.9204  11.7836  2.00084196 57173
MOLNIYA 1-36            
1 09880U 77021A   23031.50693081 -.00001197  00000+0  00000+0 0  9990
2 09880  63.4726 239.4035 7059222 289.5063  10.9031  2.00563818233949
MOLNIYA 3-8             
1 10455U 77105A   23030.79876375 -.00001087  00000+0  11490-2 0  9998
2 10455  63.4319 323.5968 7323873 282.6136  11.0379  2.00481213331706
MOLNIYA 1-40            
1 10925U 78055A   23030.95776251 -.00001021  00000+0  00000+0 0  9995
2 10925  63.5789  15.5908 7270240 280.7298  11.6997  2.00627397327240
MOLNIYA 3-10            
1 11057U 78095A   23031.22748314 -.00000170  00000+0 -35695-3 0  9993
2 11057  63.2484 315.7692 5773544 312.0324  11.5163  4.09877187393065
MOLNIYA 3-13            
1 11896U 80063A   23031.23715387 -.00000224  00000+0  00000+0 0  9994
2 11896  62.7769 107.6953 7167740 276.7078  13.4917  2.00607641311662
MOLNIYA 1-49            
1 12156U 81009A   23030.70344905 -.00000538  00000+0  14943-2 0  9992
2 12156  61.6889 129.9563 7349768 265.9922  15.4857  2.05707553226160
MOLNIYA 1-52            
1 13012U 81123A   23029.72377094  .00001601  00000+0  16432-1 0  9991
2 13012  61.6394 246.2628 7192306 258.0045  20.1475  2.00678696301119
MOLNIYA 1-53            
1 13070U 82015A   23031.43428449 -.00000450  00000+0 -46523-1 0  9995
2 13070  62.5356 186.6389 6966268 283.1507  12.9846  2.00364578299836
MOLNIYA 3-20            
1 13875U 83015A   23030.81760614 -.00000338  00000+0 -71730-3 0  9998
2 13875  62.5651 316.6622 7379052 260.3151  17.4592  2.00868044228279
MOLNIYA 1-56            
1 13890U 83019A   23029.24656435 -.00001586  00000+0  48485-3 0  9995
2 13890  62.8684 341.5496 7445008 266.1389  14.7418  2.00008042291117
MOLNIYA 1-62            
1 15214U 84089A   23023.65714639  .00000539 -77502-6  00000+0 0  9997
2 15214  62.9136 334.3794 7317995 273.7064  13.5933  2.27458351248987
MOLNIYA 1-63            
1 15429U 84124A   23031.24370740 -.00001063  00000+0  00000+0 0  9995
2 15429  63.7104 145.5416 6730535 258.0262  18.4932  2.00691296279329
MOLNIYA 3-24            
1 15738U 85040A   23031.22581855 -.00000124  00000+0  18037-3 0  9995
2 15738  63.5655  39.6019 6869771 247.2409  30.0351  2.55631265309690
MOLNIYA 3-27            
1 16393U 85117A   23031.10158499 -.00000200  00000+0  00000+0 0  9991
2 16393  64.2663  51.0863 7062235 247.0104  27.8110  2.12398751279013
MOLNIYA 1-69            
1 17078U 86089A   23028.59107125  .00001210  00000+0  00000+0 0  9991
2 17078  64.0218 164.9372 6715809 256.2472  26.0004  2.00796381265340
MOLNIYA 3-31            
1 17328U 87008A   23031.21765080 -.00000421  00000+0  00000+0 0  9998
2 17328  63.6468 100.6455 7155075 253.1878  22.9420  2.00668499260439
MOLNIYA 1-71            
1 18946U 88017A   23029.71802975 -.00000019  00000+0  00000+0 0  9996
2 18946  63.3326  93.1530 7264192 256.3484  20.1839  2.00576707255635
MOLNIYA 1-75            
1 19807U 89014A   23024.97475727 -.00000312  00000+0  00000+0 0  9991
2 19807  63.9530 260.6838 6776741 265.8548  20.6000  2.00534195248508
MOLNIYA 1-80            
1 21118U 91012A   23029.70558549 -.00000630  00000+0  00000+0 0  9993
2 21118  65.1838 308.5893 6728154 274.6787  17.5290  2.05241123235628
MOLNIYA 3-40            
1 21196U 91022A   23028.94424183  .00001093  00000+0  00000+0 0  9994
2 21196  65.0606 302.3908 6755470 271.5785  18.4718  2.03004503234261
MOLNIYA 1-81            
1 21426U 91043A   23030.82364425 -.00000082  00000+0  00000+0 0  9993
2 21426  63.9730 315.3541 7059127 265.7594  18.1794  2.00610282231722
MOLNIYA 3-41            
1 21706U 91065A   23027.52450482  .00001204  00000+0  00000+0 0  9996
2 21706  64.0811 141.0645 6942849 253.8429  24.9231  2.04343890231509
MOLNIYA 3-42            
1 22178U 92067A   23031.52674901  .00000197  00000+0  00000+0 0  9992
2 22178  64.6766 192.0932 6421419 263.2732  25.1370  2.20434533 85080
MOLNIYA 1-86            
1 22671U 93035A   23031.52386095  .00000096  00000+0  26364-3 0  9993
2 22671  63.0844 104.1551 4856198  10.7641 356.7759  5.62780449365137
MOLNIYA 1-87            
1 22949U 93079A   23024.88065539  .00000868  00000+0  00000+0 0  9999
2 22949  64.2325  66.6500 6922704 282.9292  13.3380  2.02848177 79426
MOLNIYA 1-88            
1 23420U 94081A   23031.29986987  .00000061  00000+0  00000+0 0  9995
2 23420  64.2802 145.6021 5799809 278.7732  23.1531  3.34496034121327
MOLNIYA 3-47            
1 23642U 95042A   23031.04632462 -.00001187  00000+0  00000+0 0  9999
2 23642  64.3961  47.4012 6961448 283.1363  13.0106  2.01980492201616
MOLNIYA 1-90            
1 24960U 97054A   23031.21540842  .00000110  00000+0  76069-2 0  9992
2 24960  63.7184 111.2753 6098093 296.9803  14.2979  3.18689678215268
MOLNIYA 1-91            
1 25485U 98054A   23031.53921369  .00000105  00000+0  22925-2 0  9994
2 25485  63.1479 114.7624 6775698 291.8303 154.0682  2.36444001183771
MOLNIYA 3-50            
1 25847U 99036A   23030.77485522 -.00000268  00000+0 -87393-3 0  9991
2 25847  63.3023 300.0681 7309582 282.6117  11.1535  2.00632700172673
